NORAD_CAT_ID,OBJECT_NAME,OBJECT_TYPE,EPOCH,MEAN_MOTION,ECCENTRICITY,INCLINATION,RA_OF_ASC_NODE,ARG_OF_PERICENTER,MEAN_ANOMALY,BSTAR,MEAN_MOTION_DOT,MEAN_MOTION_DDOT,TLE_LINE0,TLE_LINE1,TLE_LINE2,SEMIMAJOR_AXIS,PERIOD,APOGEE,PERIGEE,DECAYED
52456.0,STARLINK-3896,PAYLOAD,2023-01-18 11:31:09,15.08835611,0.0002522,53.214,174.6641,59.8434,300.2808,8.9823e-05,1.141e-05,0.0,0 STARLINK-3896,1 52456U 22049F   23018.47996980  .00001141  00000-0  89823-4 0  9996,2 52456  53.2140 174.6641 0002522  59.8434 300.2808 15.08835611 39070,6917.894,95.438,541.503,538.014,0.0
52456.0,STARLINK-3896,PAYLOAD,2023-01-18 14:41:55,15.08840255,0.000265,53.2145,174.0691,59.5429,300.5825,0.00013772,1.904e-05,0.0,0 STARLINK-3896,1 52456U 22049F   23018.61244635  .00001904  00000-0  13772-3 0  9991,2 52456  53.2145 174.0691 0002650  59.5429 300.5825 15.08840255 39091,6917.88,95.438,541.578,537.911,0.0
52456.0,STARLINK-3896,PAYLOAD,2023-01-19 03:25:00,15.08845654,0.000259,53.2163,171.6914,60.5666,299.5584,7.2643e-05,8.68e-06,0.0,0 STARLINK-3896,1 52456U 22049F   23019.14236444  .00000868  00000-0  72643-4 0  9990,2 52456  53.2163 171.6914 0002590  60.5666 299.5584 15.08845654 39334,6917.863,95.437,541.52,537.936,0.0
52456.0,STARLINK-3896,PAYLOAD,2023-01-19 09:46:33,15.08834957,0.0002663999999999,53.2154,170.5015,64.3038,295.8229,0.00011877,1.602e-05,0.0,0 STARLINK-3896,1 52456U 22049F   23019.40733168  .00001602  00000-0  11877-3 0  9992,2 52456  53.2154 170.5015 0002664  64.3038 295.8229 15.08834957 39374,6917.896,95.438,541.604,537.918,0.0
52456.0,STARLINK-3896,PAYLOAD,2023-01-20 03:15:47,15.08848933,0.0002738,53.216,167.2329,62.3498,297.7772,9.8621e-06,-1.32e-06,0.0,0 STARLINK-3896,1 52456U 22049F   23020.13596493 -.00000132  00000-0  98621-5 0  9994,2 52456  53.2160 167.2329 0002738  62.3498 297.7772 15.08848933 39487,6917.853,95.437,541.612,537.8240000000001,0.0
52456.0,STARLINK-3896,PAYLOAD,2023-01-21 09:28:08,15.08830445,0.0002591,53.2164,161.584,62.094,298.0314,5.564299999999999e-06,-2e-06,0.0,0 STARLINK-3896,1 52456U 22049F   23021.39453919 -.00000200  00000-0  55643-5 0  9991,2 52456  53.2164 161.5840 0002591  62.0940 298.0314 15.08830445 39678,6917.91,95.438,541.567,537.982,0.0
52456.0,STARLINK-3896,PAYLOAD,2023-01-21 15:49:40,15.08836306,0.0002428,53.2167,160.3934,68.164,291.961,5.6008e-05,6.03e-06,0.0,0 STARLINK-3896,1 52456U 22049F   23021.65949520  .00000603  00000-0  56008-4 0  9999,2 52456  53.2167 160.3934 0002428  68.1640 291.9610 15.08836306 39713,6917.892,95.438,541.436,538.077,0.0
52456.0,STARLINK-3896,PAYLOAD,2023-01-22 12:29:40,15.08845967,0.0002261,53.2167,156.5277,69.4493,290.6742,0.0001147,1.538e-05,0.0,0 STARLINK-3896,1 52456U 22049F   23022.52060808  .00001538  00000-0  11470-3 0  9990,2 52456  53.2167 156.5277 0002261  69.4493 290.6742 15.08845967 39844,6917.861999999999,95.437,541.2909999999999,538.163,0.0
52456.0,STARLINK-3896,PAYLOAD,2023-01-23 07:34:19,15.08837228,0.0003214,53.2149,152.9572,72.4293,287.705,9.911e-05,1.289e-05,0.0,0 STARLINK-3896,1 52456U 22049F   23023.31549888  .00001289  00000-0  99110-4 0  9999,2 52456  53.2149 152.9572 0003214  72.4293 287.7050 15.08837228 39966,6917.889,95.438,541.977,537.53,0.0
52456.0,STARLINK-3896,PAYLOAD,2023-01-23 09:09:42,15.08826859,0.0002346,53.2166,152.6614,84.6687,275.4573,-7.496300000000001e-05,-1.481e-05,0.0,0 STARLINK-3896,1 52456U 22049F   23023.38174176 -.00001481  00000-0 -74963-4 0  9995,2 52456  53.2166 152.6614 0002346  84.6687 275.4573 15.08826859 39979,6917.920999999999,95.438,541.409,538.163,0.0
52456.0,STARLINK-3896,PAYLOAD,2023-01-24 07:25:06,15.08837827,0.0001813,53.2156,148.4971,73.4825,286.6366,3.5885e-05,2.83e-06,0.0,0 STARLINK-3896,1 52456U 22049F   23024.30910032  .00000283  00000-0  35885-4 0  9994,2 52456  53.2156 148.4971 0001813  73.4825 286.6366 15.08837827 40114,6917.887,95.438,541.006,538.498,0.0
52456.0,STARLINK-3896,PAYLOAD,2023-01-24 13:46:38,15.08853576,0.0001974,53.2154,147.3081,83.3499,276.7718,0.00078577,0.00012244,0.0,0 STARLINK-3896,1 52456U 22049F   23024.57405636  .00012244  00000-0  78577-3 0  9996,2 52456  53.2154 147.3081 0001974  83.3499 276.7718 15.08853576 40151,6917.839,95.437,541.069,538.3380000000001,0.0
52456.0,STARLINK-3896,PAYLOAD,2023-01-24 15:22:01,15.08863697,0.0001972,53.2159,147.0114,82.5895,277.5321,0.0012157,0.00019125,0.0,0 STARLINK-3896,1 52456U 22049F   23024.64029551  .00019125  00000-0  12157-2 0  9998,2 52456  53.2159 147.0114 0001972  82.5895 277.5321 15.08863697 40164,6917.808000000001,95.436,541.0369999999999,538.309,0.0
52456.0,STARLINK-3896,PAYLOAD,2023-01-25 13:37:25,15.08857068,0.0001801,53.2148,142.8475,82.3333,277.7864,0.0005494,8.471e-05,0.0,0 STARLINK-3896,1 52456U 22049F   23025.56765193  .00008471  00000-0  54940-3 0  9998,2 52456  53.2148 142.8475 0001801  82.3333 277.7864 15.08857068 40148,6917.828,95.436,540.939,538.447,0.0
52456.0,STARLINK-3896,PAYLOAD,2023-01-25 15:12:48,15.08858644,0.0001766,53.2146,142.55,87.0771,273.0423,0.00061187,9.468e-05,0.0,0 STARLINK-3896,1 52456U 22049F   23025.63389089  .00009468  00000-0  61187-3 0  9990,2 52456  53.2146 142.5500 0001766  87.0771 273.0423 15.08858644 40310,6917.823,95.436,540.91,538.467,0.0
52456.0,STARLINK-3896,PAYLOAD,2023-01-26 00:45:07,15.088515300000005,0.0001996999999999,53.2158,140.7673,78.8391,281.2826,0.00085032,0.00013275,0.0,0 STARLINK-3896,1 52456U 22049F   23026.03133171  .00013275  00000-0  85032-3 0  9990,2 52456  53.2158 140.7673 0001997  78.8391 281.2826 15.08851530 40377,6917.845,95.437,541.092,538.3290000000001,0.0
52456.0,STARLINK-3896,PAYLOAD,2023-01-26 13:28:12,15.08841606,0.0002313,53.2155,138.3894,78.9836,281.1416,0.00015852,2.236e-05,0.0,0 STARLINK-3896,1 52456U 22049F   23026.56125528  .00002236  00000-0  15852-3 0  9993,2 52456  53.2155 138.3894 0002313  78.9836 281.1416 15.08841606 40298,6917.875,95.437,541.341,538.14,0.0
52456.0,STARLINK-3896,PAYLOAD,2023-01-26 15:03:35,15.08846567,0.0002065999999999,53.2155,138.0917,74.9341,285.1879,0.0001462,2.04e-05,0.0,0 STARLINK-3896,1 52456U 22049F   23026.62749331  .00002040  00000-0  14620-3 0  9999,2 52456  53.2155 138.0917 0002066  74.9341 285.1879 15.08846567 40460,6917.86,95.437,541.155,538.2959999999999,0.0
52456.0,STARLINK-3896,PAYLOAD,2023-01-27 13:18:59,15.08841848,0.0001771999999999,53.216,133.9283,74.6121,285.5067,8.1907e-05,1.016e-05,0.0,0 STARLINK-3896,1 52456U 22049F   23027.55485517  .00001016  00000-0  81907-4 0  9990,2 52456  53.2160 133.9283 0001772  74.6121 285.5067 15.08841848 40608,6917.875,95.437,540.966,538.514,0.0
52456.0,STARLINK-3896,PAYLOAD,2023-01-28 13:09:46,15.08840964,0.0001782,53.2154,129.4666,91.4529,268.6667,5.8761e-05,6.47e-06,0.0,0 STARLINK-3896,1 52456U 22049F   23028.54845472  .00000647  00000-0  58761-4 0  9991,2 52456  53.2154 129.4666 0001782  91.4529 268.6667 15.08840964 40590,6917.877,95.437,540.975,538.51,0.0
52456.0,STARLINK-3896,PAYLOAD,2023-01-28 16:20:32,15.08845841,0.0001779,53.2154,128.8694,100.899,259.2203,8.1252e-05,1.005e-05,0.0,0 STARLINK-3896,1 52456U 22049F   23028.68093180  .00001005  00000-0  81252-4 0  9997,2 52456  53.2154 128.8694 0001779 100.8990 259.2203 15.08845841 40778,6917.863,95.437,540.958,538.497,0.0
52456.0,STARLINK-3896,PAYLOAD,2023-01-29 06:39:01,15.08836157,0.0001693,53.2147,126.1958,88.5879,271.5307,3.8082e-05,3.18e-06,0.0,0 STARLINK-3896,1 52456U 22049F   23029.27709826  .00000318  00000-0  38082-4 0  9993,2 52456  53.2147 126.1958 0001693  88.5879 271.5307 15.08836157 40869,6917.892,95.438,540.928,538.586,0.0
52456.0,STARLINK-3896,PAYLOAD,2023-01-29 16:11:19,15.08844335,0.0001582,53.2161,124.4112,97.2369,262.8803,0.00011471,1.538e-05,0.0,0 STARLINK-3896,1 52456U 22049F   23029.67453164  .00001538  00000-0  11471-3 0  9995,2 52456  53.2161 124.4112 0001582  97.2369 262.8803 15.08844335 40924,6917.867,95.437,540.827,538.638,0.0
52456.0,STARLINK-3896,PAYLOAD,2023-01-30 06:29:48,15.08829837,0.0001572,53.2159,121.7349,98.0368,262.0802,3.3232e-05,2.41e-06,0.0,0 STARLINK-3896,1 52456U 22049F   23030.27070407  .00000241  00000-0  33232-4 0  9998,2 52456  53.2159 121.7349 0001572  98.0368 262.0802 15.08829837 41012,6917.911,95.438,540.864,538.689,0.0
52456.0,STARLINK-3896,PAYLOAD,2023-01-30 11:15:58,15.08832397,0.0001441,53.2159,120.8429,97.7173,262.3982,7.9239e-05,9.73e-06,0.0,0 STARLINK-3896,1 52456U 22049F   23030.46942182  .00000973  00000-0  79239-4 0  9996,2 52456  53.2159 120.8429 0001441  97.7173 262.3982 15.08832397 40887,6917.904,95.438,540.765,538.772,0.0
52456.0,STARLINK-3896,PAYLOAD,2023-01-30 22:23:39,15.08839956,0.0001582,53.2164,118.7609,113.1718,246.9441,3.626e-06,-2.3e-06,0.0,0 STARLINK-3896,1 52456U 22049F   23030.93309857 -.00000230  00000-0  36260-5 0  9999,2 52456  53.2164 118.7609 0001582 113.1718 246.9441 15.08839956 41116,6917.881,95.438,540.84,538.651,0.0
52456.0,STARLINK-3896,PAYLOAD,2023-01-31 06:20:35,15.08833559,0.0001446,53.216,117.2744,98.9861,261.1294,1.3964e-05,-6.6e-07,0.0,0 STARLINK-3896,1 52456U 22049F   23031.26430518 -.00000066  00000-0  13964-4 0  9997,2 52456  53.2160 117.2744 0001446  98.9861 261.1294 15.08833559 41167,6917.9,95.438,540.765,538.765,0.0
52456.0,STARLINK-3896,PAYLOAD,2023-01-31 11:06:45,15.08835758,0.0001463,53.2159,116.3823,99.6146,260.5011,2.4882e-05,1.08e-06,0.0,0 STARLINK-3896,1 52456U 22049F   23031.46302400  .00000108  00000-0  24882-4 0  9994,2 52456  53.2159 116.3823 0001463  99.6146 260.5011 15.08835758 41035,6917.893,95.438,540.77,538.746,0.0
52456.0,STARLINK-3896,PAYLOAD,2023-02-01 04:35:59,15.08840376,0.0001454,53.2169,113.1119,99.4936,260.6221,0.00016414,2.325e-05,0.0,0 STARLINK-3896,1 52456U 22049F   23032.19165921  .00002325  00000-0  16414-3 0  9994,2 52456  53.2169 113.1119 0001454  99.4936 260.6221 15.08840376 41300,6917.879,95.438,540.75,538.738,0.0
